satname,norad_id,inclination_deg,eccentricity,mean_motion_rev_per_day,perigee_km,apogee_km,l1,l2
STARLINK-1008,44714,53.0548,0.0001541,15.06412389,546.1063973362861,548.2407780594158,1 44714U 19074B   25322.30848951  .00004438  00000+0  31652-3 0  9991,2 44714  53.0548 326.6263 0001541  83.6792 276.4373 15.06412389331964
STARLINK-1011,44717,53.0425,0.0003824,15.98137496,277.04047266484395,282.1322995105238,1 44717U 19074E   25322.91671295  .00463169  10120-3  98585-3 0  9992,2 44717  53.0425 295.1195 0003824  59.4849  43.8012 15.98137496  6009
STARLINK-1012,44718,53.0544,0.0001891,15.06406973,545.8806074089907,548.4997661510324,1 44718U 19074F   25322.75080240  .00002842  00000+0  20956-3 0  9995,2 44718  53.0544 324.6445 0001891  55.6172 304.4996 15.06406973332026
STARLINK-1017,44723,53.0522,0.0003801,15.16256518,514.545608623469,519.7874183544245,1 44723U 19074L   25322.28454898  .00038666  00000+0  19798-2 0  9997,2 44723  53.0522 322.1793 0003801   8.9721 351.1340 15.16256518332022
STARLINK-1019,44724,53.0536,0.0001239,15.49300508,417.92898198823514,419.61325582009977,1 44724U 19074M   25322.91671295  .01251175  00000+0  20379-1 0  9999,2 44724  53.0536 320.4486 0001239  83.2092  85.8109 15.49300508  5844
STARLINK-1020,44725,53.0555,0.0001818,15.06408852,545.9254045304478,548.4434514016557,1 44725U 19074N   25322.35458044  .00008681  00000+0  60080-3 0  9999,2 44725  53.0555 346.4221 0001818  93.2920 266.8277 15.06408852331680
STARLINK-1031,44736,53.0501,0.0007154,15.5144967,407.6346599439812,417.3506928849956,1 44736U 19074Z   25322.27279316  .00141557  00000+0  23224-2 0  9993,2 44736  53.0501 310.6630 0007154 355.2859   4.8081 15.51449670332194
STARLINK-1036,44741,53.0548,0.0001409,15.06408296,546.2103539805075,548.161910039109,1 44741U 19074AE  25322.38405250  .00004801  00000+0  34090-3 0  9993,2 44741  53.0548 346.2874 0001409  83.3672 276.7478 15.06408296331698
STARLINK-1039,44744,53.0515,0.000146,15.14153815,522.5410554879536,524.5563477128208,1 44744U 19074AH  25322.43170385  .00040189  00000+0  21828-2 0  9993,2 44744  53.0515   3.1364 0001460 235.1913 124.8942 15.14153815331467
STARLINK-1042,44747,53.0475,0.0003583,15.44150087,431.43577421126065,436.3172630987301,1 44747U 19074AL  25322.84985472  .00023815  00000+0  51914-3 0  9999,2 44747  53.0475 264.2403 0003583 126.2185 233.9152 15.44150087332915
STARLINK-1043,44748,53.0553,0.0001488,15.19388159,506.66394723621033,508.71316892229515,1 44748U 19074AM  25322.91671295  .02112755  00000+0  89785-1 0  9992,2 44748  53.0553   3.5974 0001488  60.5795 255.0758 15.19388159  5840
STARLINK-1046,44751,53.0555,0.0001308,15.06416916,546.2538845096797,548.0655421298843,1 44751U 19074AQ  25322.50384052  .00010761  00000+0  73987-3 0  9994,2 44751  53.0555   5.7497 0001308 102.9217 257.1919 15.06416916331439
STARLINK-1047,44752,53.0719,0.0001101,15.2977314,475.73519837174626,477.2445872135386,1 44752U 19074AR  25322.27166718  .00011964  00000+0  42087-3 0  9999,2 44752  53.0719 305.3808 0001101 209.1448 150.9490 15.29773140332271
STARLINK-1048,44753,53.0551,0.0001594,15.06405552,546.090644062393,548.2984397579548,1 44753U 19074AS  25322.33060902  .00007143  00000+0  49790-3 0  9997,2 44753  53.0551 326.5272 0001594  94.7740 265.3431 15.06405552331960
STARLINK-1053,44758,53.0391,0.0005126,15.63375109,374.452816563381,381.3791220675221,1 44758U 19074AX  25322.84349708  .00069997  00000+0  74502-3 0  9996,2 44758  53.0391 275.2763 0005126  89.5983 270.5618 15.63375109332747
STARLINK-1054,44759,53.0266,0.0002077,16.25987924,201.97700973829615,204.71095693877487,1 44759U 19074AY  25322.91330792  .02662475  11981-4  82039-3 0  9999,2 44759  53.0266 292.9972 0002077  90.1879 269.9400 16.25987924330136
STARLINK-1060,44765,53.0523,0.0006586,15.67609005,361.30418668763014,370.18722899039494,1 44765U 19074BE  25322.91671295  .00191074  00000+0  16835-2 0  9997,2 44765  53.0523 320.6550 0006586  45.3544  82.9333 15.67609005  6000
STARLINK-1063,44768,53.0549,0.0001542,15.06409774,546.1137180695014,548.2494863264201,1 44768U 19074BH  25322.82452038  .00001511  00000+0  12029-3 0  9990,2 44768  53.0549   4.3127 0001542  91.1036 269.0129 15.06409774331498
STARLINK-1067,44771,53.0556,0.0001343,15.06407243,546.259287945355,548.1194306054567,1 44771U 19074BL  25322.41537963  .00005051  00000+0  35768-3 0  9998,2 44771  53.0556   6.1489 0001343  92.1686 267.9457 15.06407243331425
STARLINK-1068,44772,53.0543,0.0001358,15.06409893,546.2407792674167,548.1216957007182,1 44772U 19074BM  25322.33981611  .00003035  00000+0  22250-3 0  9995,2 44772  53.0543 346.4874 0001358  94.9337 265.1807 15.06409893331689
STARLINK-1112,44925,53.0487,0.0002251,15.57478738,393.43217838222427,396.48142521179307,1 44925U 20001M   25322.70457205  .00120192  00000+0  15887-2 0  9996,2 44925  53.0487  76.2208 0002251 253.6532 106.4232 15.57478738323803
STARLINK-1114,44927,53.0538,0.0001458,15.06410482,546.169721168415,548.1891434400759,1 44927U 20001P   25322.84294890  .00001039  00000+0  88591-4 0  9994,2 44927  53.0538 124.2293 0001458  80.1445 279.9709 15.06410482323142
STARLINK-1123,44930,53.0515,0.0001412,15.06385997,546.2766101725992,548.2323407252661,1 44930U 20001S   25322.85769160  .00001273  00000+0  10438-3 0  9990,2 44930  53.0515 124.1640 0001412  89.5987 270.5164 15.06385997323144
STARLINK-1144,44933,53.0435,0.0004987,15.65698467,367.8648156535028,374.59663502275544,1 44933U 20001V   25322.62036306  .00132002  00000+0  12673-2 0  9994,2 44933  53.0435  52.6962 0004987 148.1280 212.0037 15.65698467325425
STARLINK-1094,44941,53.051,0.0001248,15.06404821,546.3325006510031,548.0610639630677,1 44941U 20001AD  25322.80424551  .00002584  00000+0  19225-3 0  9998,2 44941  53.0510 104.4031 0001248  83.9936 276.1195 15.06404821323419
STARLINK-1096,44942,52.9809,0.000515,16.07146563,251.26669695910914,258.09850114613346,1 44942U 20001AE  25321.96138981  .00773529  32177-3  96377-3 0  9995,2 44942  52.9809 215.2834 0005150 150.9571 209.1748 16.07146563326801
STARLINK-1122,44949,53.0544,0.000142,15.06411331,546.193435709024,548.1602248368217,1 44949U 20001AM  25322.82636153  .00001842  00000+0  14247-3 0  9996,2 44949  53.0544 104.2984 0001420  85.4420 274.6731 15.06411331323419
STARLINK-1080,44961,53.0536,0.0001211,15.06419915,546.3118696850743,547.9891743229045,1 44961U 20001AZ  25322.49278681  .00004262  00000+0  30466-3 0  9991,2 44961  53.0536  85.7995 0001211 100.9525 259.1600 15.06419915323651
STARLINK-1090,44968,53.054,0.0001279,15.06423391,546.2541259083182,548.025611731362,1 44968U 20001BG  25322.76185256  .00004508  00000+0  32113-3 0  9997,2 44968  53.0540  84.5913 0001279 108.8479 251.2648 15.06423391323691
STARLINK-1107,44972,53.0053,0.0007959,15.78777138,328.5622173816082,339.246444772416,1 44972U 20001BL  25322.91671295  .00333872  00000+0  17908-2 0  9995,2 44972  53.0053 349.5122 0007959  28.8462 348.3278 15.78777138  6016
STARLINK-1132,45044,53.0553,0.0001131,15.06410857,546.395029838317,547.9615361553306,1 45044U 20006A   25322.45592466  .00009551  00000+0  65901-3 0  9993,2 45044  53.0553  45.9680 0001131  58.7156 301.3943 15.06410857319979
STARLINK-1131,45047,53.0552,0.0001297,15.06409523,546.284157546118,548.0805853910779,1 45047U 20006D   25322.69742043  .00008186  00000+0  56768-3 0  9994,2 45047  53.0552  65.4205 0001297  81.4323 278.6813 15.06409523319726
STARLINK-1134,45048,53.0375,0.0006911,15.29731884,471.8758180156483,481.3504536533992,1 45048U 20006E   25322.91671295 -.00008563  00000+0 -28105-3 0  9995,2 45048  53.0375  39.3236 0006911 216.7950 126.0559 15.29731884  5752
STARLINK-1156,45054,53.0548,0.0001304,15.0641176,546.272454714489,548.0785762185214,1 45054U 20006L   25322.66785895  .00008123  00000+0  56343-3 0  9991,2 45054  53.0548  65.0143 0001304  73.8468 286.2664 15.06411760319725
STARLINK-1159,45057,53.0544,0.0002053,15.52257535,408.74273901160996,411.5300040579623,1 45057U 20006P   25322.91671295  .00075674  00000+0  12207-2 0  9995,2 45057  53.0544  58.5285 0002053   9.8996  46.7866 15.52257535  5842
STARLINK-1166,45060,53.0539,0.0001351,15.06412411,546.2379108206551,548.1091297232342,1 45060U 20006S   25322.69366359  .00009365  00000+0  64652-3 0  9992,2 45060  53.0539  64.8979 0001351 100.9683 259.1458 15.06412411319734
STARLINK-1169,45061,53.0552,0.0001372,15.0641478,546.2161081301201,548.116411344592,1 45061U 20006T   25322.70103851  .00009416  00000+0  64993-3 0  9996,2 45061  53.0552  64.8655 0001372  81.9848 278.1297 15.06414780319738
STARLINK-1171,45062,53.0563,0.0006209,15.35812687,454.26278288400954,462.7525282172719,1 45062U 20006U   25322.66176878  .00028402  00000+0  81087-3 0  9990,2 45062  53.0563  59.1724 0006209 332.3235  27.7435 15.35812687319813
STARLINK-1133,45064,53.0586,0.0001381,15.06418146,546.1995606645378,548.1123265755668,1 45064U 20006W   25322.63284589  .00009443  00000+0  65166-3 0  9992,2 45064  53.0586  45.1639 0001381 111.4293 248.6843 15.06418146320006
STARLINK-1167,45071,53.0556,0.0001378,15.06403362,546.2469423002685,548.1555655230468,1 45071U 20006AD  25322.65865885  .00002162  00000+0  16399-3 0  9991,2 45071  53.0556  45.0530 0001378  95.6564 264.4582 15.06403362320000
STARLINK-1168,45072,53.0557,0.0001068,15.0640822,546.4467404013594,547.925989472109,1 45072U 20006AE  25322.59598450  .00008294  00000+0  57490-3 0  9995,2 45072  53.0557  45.3365 0001068  72.1830 287.9276 15.06408220319997
STARLINK-1172,45074,53.0549,0.0001339,15.06390783,546.312498905384,548.1671148142605,1 45074U 20006AG  25322.60704993  .00001153  00000+0  96320-4 0  9993,2 45074  53.0549  45.2882 0001339 110.4203 249.6930 15.06390783319990
STARLINK-1153,45080,53.0555,0.000134,15.06421302,546.2182831873433,548.0742591040107,1 45080U 20006AN  25322.65127593  .00011064  00000+0  76004-3 0  9998,2 45080  53.0555  45.0882 0001340  68.4782 291.6349 15.06421302320005
